{"type": "FeatureCollection", "features": [ {"type": "Feature", "properties": {"norad_id": 40664, "name": "SKY MEXICO-1", "group": "intelsat", "lat": -0.029442961253759843, "lon": -73.5377091553743, "alt_km": 35775.46692515966, "timestamp": "2025-12-13T18:50:04.096310+00:00", "meta": {"OBJECT_NAME": "SKY MEXICO-1", "OBJECT_ID": "2015-026B", "EPOCH": "2025-12-13T04:30:53.125632", "MEAN_MOTION": 1.00272293, "ECCENTRICITY": 0.00025174, "INCLINATION": 0.0378, "RA_OF_ASC_NODE": 79.7735, "ARG_OF_PERICENTER": 198.3444, "MEAN_ANOMALY": 152.9635, "EPHEMERIS_TYPE": 0, "CLASSIFICATION_TYPE": "U", "NORAD_CAT_ID": 40664, "ELEMENT_SET_NO": 999, "REV_AT_EPOCH": 3858, "BSTAR": 0, "MEAN_MOTION_DOT": -2.21e-06, "MEAN_MOTION_DDOT": 0}, "tle": {"line1": "1 40664U 15026B   25347.18811488 -.00000221  00000+0  00000+0 0  9998", "line2": "2 40664   0.0378  79.7735 0002517 198.3444 152.9635  1.00272293 38587"}}, "geometry": {"type": "Point", "coordinates": [-73.5377091553743, -0.029442961253759843]}}, {"type": "Feature", "properties": {"norad_id": 40874, "name": "INTELSAT 34 (IS-34)", "group": "intelsat", "lat": -0.010237931460396853, "lon": -50.27835433589559, "alt_km": 35788.255643351826, "timestamp": "2025-12-13T18:50:04.096322+00:00", "meta": {"OBJECT_NAME": "INTELSAT 34 (IS-34)", "OBJECT_ID": "2015-039A", "EPOCH": "2025-12-12T13:12:57.677184", "MEAN_MOTION": 1.00271609, "ECCENTRICITY": 6.184e-05, "INCLINATION": 0.0135, "RA_OF_ASC_NODE": 325.751, "ARG_OF_PERICENTER": 204.0245, "MEAN_ANOMALY": 54.4583, "EPHEMERIS_TYPE": 0, "CLASSIFICATION_TYPE": "U", "NORAD_CAT_ID": 40874, "ELEMENT_SET_NO": 999, "REV_AT_EPOCH": 3775, "BSTAR": 0, "MEAN_MOTION_DOT": -2.74e-06, "MEAN_MOTION_DDOT": 0}, "tle": {"line1": "1 40874U 15039A   25346.55066756 -.00000274  00000+0  00000+0 0  9993", "line2": "2 40874   0.0135 325.7510 0000618 204.0245  54.4583  1.00271609 37756"}}, "geometry": {"type": "Point", "coordinates": [-50.27835433589559, -0.010237931460396853]}}, {"type": "Feature", "properties": {"norad_id": 41581, "name": "INTELSAT 31 (IS-31)", "group": "intelsat", "lat": -0.011104902947591873, "lon": -89.81788348966501, "alt_km": 35781.55254592311, "timestamp": "2025-12-13T18:50:04.096334+00:00", "meta": {"OBJECT_NAME": "INTELSAT 31 (IS-31)", "OBJECT_ID": "2016-035A", "EPOCH": "2025-12-12T21:35:22.164576", "MEAN_MOTION": 1.00271383, "ECCENTRICITY": 0.00020554, "INCLINATION": 0.0183, "RA_OF_ASC_NODE": 268.2699, "ARG_OF_PERICENTER": 304.2994, "MEAN_ANOMALY": 98.0553, "EPHEMERIS_TYPE": 0, "CLASSIFICATION_TYPE": "U", "NORAD_CAT_ID": 41581, "ELEMENT_SET_NO": 999, "REV_AT_EPOCH": 3481, "BSTAR": 0, "MEAN_MOTION_DOT": -1.38e-06, "MEAN_MOTION_DDOT": 0}, "tle": {"line1": "1 41581U 16035A   25346.89956209 -.00000138  00000+0  00000+0 0  9993", "line2": "2 41581   0.0183 268.2699 0002055 304.2994  98.0553  1.00271383 34819"}}, "geometry": {"type": "Point", "coordinates": [-89.81788348966501, -0.011104902947591873]}}, {"type": "Feature", "properties": {"norad_id": 41747, "name": "INTELSAT 36 (IS-36)", "group": "intelsat", "lat": 0.029312756343846606, "lon": 73.71976751505741, "alt_km": 35788.00115396838, "timestamp": "2025-12-13T18:50:04.096346+00:00", "meta": {"OBJECT_NAME": "INTELSAT 36 (IS-36)", "OBJECT_ID": "2016-053A", "EPOCH": "2025-12-12T20:39:14.930208", "MEAN_MOTION": 1.00270684, "ECCENTRICITY": 0.00015547, "INCLINATION": 0.0128, "RA_OF_ASC_NODE": 7.6743, "ARG_OF_PERICENTER": 321.5559, "MEAN_ANOMALY": 130.8681, "EPHEMERIS_TYPE": 0, "CLASSIFICATION_TYPE": "U", "NORAD_CAT_ID": 41747, "ELEMENT_SET_NO": 999, "REV_AT_EPOCH": 3408, "BSTAR": 0, "MEAN_MOTION_DOT": -1.2e-07, "MEAN_MOTION_DDOT": 0}, "tle": {"line1": "1 41747U 16053A   25346.86058947 -.00000012  00000+0  00000+0 0  9997", "line2": "2 41747   0.0128   7.6743 0001554 321.5559 130.8681  1.00270684 34088"}}, "geometry": {"type": "Point", "coordinates": [73.71976751505741, 0.029312756343846606]}}, {"type": "Feature", "properties": {"norad_id": 41945, "name": "INTELSAT 32E (IS-32E)", "group": "intelsat", "lat": -0.0316693952223403, "lon": -37.95829449079655, "alt_km": 35784.42102268398, "timestamp": "2025-12-13T18:50:04.096358+00:00", "meta": {"OBJECT_NAME": "INTELSAT 32E (IS-32E)", "OBJECT_ID": "2017-007B", "EPOCH": "2025-12-12T11:33:44.679168", "MEAN_MOTION": 1.00273861, "ECCENTRICITY": 3.861e-05, "INCLINATION": 0.0354, "RA_OF_ASC_NODE": 82.6036, "ARG_OF_PERICENTER": 280.6351, "MEAN_ANOMALY": 208.4399, "EPHEMERIS_TYPE": 0, "CLASSIFICATION_TYPE": "U", "NORAD_CAT_ID": 41945, "ELEMENT_SET_NO": 999, "REV_AT_EPOCH": 3235, "BSTAR": 0, "MEAN_MOTION_DOT": -2.58e-06, "MEAN_MOTION_DDOT": 0}, "tle": {"line1": "1 41945U 17007B   25346.48176712 -.00000258  00000+0  00000+0 0  9998", "line2": "2 41945   0.0354  82.6036 0000386 280.6351 208.4399  1.00273861 32350"}}, "geometry": {"type": "Point", "coordinates": [-37.95829449079655, -0.0316693952223403]}}, {"type": "Feature", "properties": {"norad_id": 42818, "name": "INTELSAT 35E (IS-35E)", "group": "intelsat", "lat": -0.015287114060192723, "lon": -29.251002777611433, "alt_km": 35782.55232592998, "timestamp": "2025-12-13T18:50:04.096370+00:00", "meta": {"OBJECT_NAME": "INTELSAT 35E (IS-35E)", "OBJECT_ID": "2017-041A", "EPOCH": "2025-12-13T04:43:29.419392", "MEAN_MOTION": 1.00273267, "ECCENTRICITY": 0.00020568, "INCLINATION": 0.0184, "RA_OF_ASC_NODE": 10.705, "ARG_OF_PERICENTER": 251.4112, "MEAN_ANOMALY": 216.392, "EPHEMERIS_TYPE": 0, "CLASSIFICATION_TYPE": "U", "NORAD_CAT_ID": 42818, "ELEMENT_SET_NO": 999, "REV_AT_EPOCH": 3095, "BSTAR": 0, "MEAN_MOTION_DOT": -2.24e-06, "MEAN_MOTION_DDOT": 0}, "tle": {"line1": "1 42818U 17041A   25347.19686828 -.00000224  00000+0  00000+0 0  9992", "line2": "2 42818   0.0184  10.7050 0002056 251.4112 216.3920  1.00273267 30958"}}, "geometry": {"type": "Point", "coordinates": [-29.251002777611433, -0.015287114060192723]}}, {"type": "Feature", "properties": {"norad_id": 42950, "name": "INTELSAT 37E (IS-37E)", "group": "intelsat", "lat": -0.0004486711264091755, "lon": -12.738189821986037, "alt_km": 35785.969914471614, "timestamp": "2025-12-13T18:50:04.096383+00:00", "meta": {"OBJECT_NAME": "INTELSAT 37E (IS-37E)", "OBJECT_ID": "2017-059A", "EPOCH": "2025-12-13T04:48:13.964832", "MEAN_MOTION": 1.00272186, "ECCENTRICITY": 0.00030398, "INCLINATION": 0.0027, "RA_OF_ASC_NODE": 78.8787, "ARG_OF_PERICENTER": 178.4467, "MEAN_ANOMALY": 238.8737, "EPHEMERIS_TYPE": 0, "CLASSIFICATION_TYPE": "U", "NORAD_CAT_ID": 42950, "ELEMENT_SET_NO": 999, "REV_AT_EPOCH": 3020, "BSTAR": 0, "MEAN_MOTION_DOT": -1.27e-06, "MEAN_MOTION_DDOT": 0}, "tle": {"line1": "1 42950U 17059A   25347.20016163 -.00000127  00000+0  00000+0 0  9991", "line2": "2 42950   0.0027  78.8787 0003039 178.4467 238.8737  1.00272186 30208"}}, "geometry": {"type": "Point", "coordinates": [-12.738189821986037, -0.0004486711264091755]}}, {"type": "Feature", "properties": {"norad_id": 43632, "name": "AZERSPACE 2 (IS-38)", "group": "intelsat", "lat": 0.03613252312565913, "lon": 50.34247765121881, "alt_km": 35790.60984638322, "timestamp": "2025-12-13T18:50:04.096395+00:00", "meta": {"OBJECT_NAME": "AZERSPACE 2 (IS-38)", "OBJECT_ID": "2018-074A", "EPOCH": "2025-12-13T05:06:12.243744", "MEAN_MOTION": 1.00271556, "ECCENTRICITY": 0.000134, "INCLINATION": 0.0184, "RA_OF_ASC_NODE": 341.0479, "ARG_OF_PERICENTER": 286.2367, "MEAN_ANOMALY": 296.5271, "EPHEMERIS_TYPE": 0, "CLASSIFICATION_TYPE": "U", "NORAD_CAT_ID": 43632, "ELEMENT_SET_NO": 999, "REV_AT_EPOCH": 2658, "BSTAR": 0, "MEAN_MOTION_DOT": 1.5e-06, "MEAN_MOTION_DDOT": 0}, "tle": {"line1": "1 43632U 18074A   25347.21264171  .00000150  00000+0  00000+0 0  9997", "line2": "2 43632   0.0184 341.0479 0001340 286.2367 296.5271  1.00271556 26583"}}, "geometry": {"type": "Point", "coordinates": [50.34247765121881, 0.03613252312565913]}}, {"type": "Feature", "properties": {"norad_id": 43633, "name": "HORIZONS-3E", "group": "intelsat", "lat": -0.02123924858273548, "lon": 174.19023624063877, "alt_km": 35789.377320915184, "timestamp": "2025-12-13T18:50:04.096407+00:00", "meta": {"OBJECT_NAME": "HORIZONS-3E", "OBJECT_ID": "2018-074B", "EPOCH": "2025-12-12T13:12:38.637216", "MEAN_MOTION": 1.0026807, "ECCENTRICITY": 0.00011684, "INCLINATION": 0.0433, "RA_OF_ASC_NODE": 179.7044, "ARG_OF_PERICENTER": 112.3484, "MEAN_ANOMALY": 156.6007, "EPHEMERIS_TYPE": 0, "CLASSIFICATION_TYPE": "U", "NORAD_CAT_ID": 43633, "ELEMENT_SET_NO": 999, "REV_AT_EPOCH": 2646, "BSTAR": 0, "MEAN_MOTION_DOT": -2e-07, "MEAN_MOTION_DDOT": 0}, "tle": {"line1": "1 43633U 18074B   25346.55044719 -.00000020  00000+0  00000+0 0  9995", "line2": "2 43633   0.0433 179.7044 0001168 112.3484 156.6007  1.00268070 26469"}}, "geometry": {"type": "Point", "coordinates": [174.19023624063877, -0.02123924858273548]}}, {"type": "Feature", "properties": {"norad_id": 44333, "name": "AT&T T-16", "group": "intelsat", "lat": -0.019965922339449257, "lon": -95.62871708531777, "alt_km": 35787.161064417145, "timestamp": "2025-12-13T18:50:04.096419+00:00", "meta": {"OBJECT_NAME": "AT&T T-16", "OBJECT_ID": "2019-034A", "EPOCH": "2025-12-12T21:33:37.332000", "MEAN_MOTION": 1.00273494, "ECCENTRICITY": 7.506e-05, "INCLINATION": 0.0298, "RA_OF_ASC_NODE": 78.3043, "ARG_OF_PERICENTER": 66.9673, "MEAN_ANOMALY": 159.1096, "EPHEMERIS_TYPE": 0, "CLASSIFICATION_TYPE": "U", "NORAD_CAT_ID": 44333, "ELEMENT_SET_NO": 999, "REV_AT_EPOCH": 2376, "BSTAR": 0, "MEAN_MOTION_DOT": -1.03e-06, "MEAN_MOTION_DDOT": 0}, "tle": {"line1": "1 44333U 19034A   25346.89834875 -.00000103  00000+0  00000+0 0  9999", "line2": "2 44333   0.0298  78.3043 0000750  66.9673 159.1096  1.00273494 23761"}}, "geometry": {"type": "Point", "coordinates": [-95.62871708531777, -0.019965922339449257]}}]}